[{"OBJECT_NAME":"UTMN 2 (RS27S)","OBJECT_ID":"2023-091AP","EPOCH":"2026-03-09T23:09:07.917408","MEAN_MOTION":15.29495965,"ECCENTRICITY":0.00097379,"INCLINATION":97.5194,"RA_OF_ASC_NODE":134.949,"ARG_OF_PERICENTER":76.0788,"MEAN_ANOMALY":284.1534,"EPHEMERIS_TYPE":0,"CLASSIFICATION_TYPE":"U","NORAD_CAT_ID":57203,"ELEMENT_SET_NO":999,"REV_AT_EPOCH":14936,"BSTAR":0.00056135701,"MEAN_MOTION_DOT":0.00016013,"MEAN_MOTION_DDOT":0},{"OBJECT_NAME":"STARLINK-34280","OBJECT_ID":"2025-137A","EPOCH":"2026-03-09T22:36:04.714272","MEAN_MOTION":15.30212268,"ECCENTRICITY":0.00014065,"INCLINATION":53.159,"RA_OF_ASC_NODE":334.0621,"ARG_OF_PERICENTER":147.1912,"MEAN_ANOMALY":212.9177,"EPHEMERIS_TYPE":0,"CLASSIFICATION_TYPE":"U","NORAD_CAT_ID":64594,"ELEMENT_SET_NO":999,"REV_AT_EPOCH":4077,"BSTAR":0.00095608936,"MEAN_MOTION_DOT":0.00028075,"MEAN_MOTION_DDOT":0}]
